{
  "type": "FeatureCollection",
  "features": [
    {
      "type": "Feature",
      "properties": {
        "norad_id": 64751,
        "name": "PROGRESS-MS 31",
        "group": "stations",
        "lat": -29.13957719482173,
        "lon": 85.34838489030619,
        "alt_km": 420.03966844913884,
        "timestamp": "2025-12-18T23:35:47.807702+00:00",
        "meta_object_name": "PROGRESS-MS 31",
        "meta_object_id": "2025-146A",
        "meta_epoch": "2025-12-18T12:55:40.164384",
        "meta_mean_motion": 15.49652631,
        "meta_eccentricity": 0.00031724,
        "meta_inclination": 51.6314,
        "meta_ra_of_asc_node": 113.7624,
        "meta_arg_of_pericenter": 267.0099,
        "meta_mean_anomaly": 93.0526,
        "meta_ephemeris_type": 0,
        "meta_classification_type": "U",
        "meta_norad_cat_id": 64751,
        "meta_element_set_no": 999,
        "meta_rev_at_epoch": 675,
        "meta_bstar": 0.00013939492,
        "meta_mean_motion_dot": 7.413e-05,
        "meta_mean_motion_ddot": 0,
        "tle_line1": "1 64751U 25146A   25352.53865931  .00007413  00000+0  13939-3 0  9990",
        "tle_line2": "2 64751  51.6314 113.7624 0003172 267.0099  93.0526 15.49652631  6750"
      },
      "geometry": {
        "type": "Point",
        "coordinates": [
          85.34838489030619,
          -29.13957719482173
        ]
      }
    },
    {
      "type": "Feature",
      "properties": {
        "norad_id": 64786,
        "name": "TIANZHOU-9",
        "group": "stations",
        "lat": -28.227202867568266,
        "lon": -58.63979124274771,
        "alt_km": 395.0043800065814,
        "timestamp": "2025-12-18T23:35:47.807712+00:00",
        "meta_object_name": "TIANZHOU-9",
        "meta_object_id": "2025-149A",
        "meta_epoch": "2025-12-18T06:53:03.575616",
        "meta_mean_motion": 15.59417882,
        "meta_eccentricity": 0.00077258,
        "meta_inclination": 41.4683,
        "meta_ra_of_asc_node": 343.0261,
        "meta_arg_of_pericenter": 79.3286,
        "meta_mean_anomaly": 280.8422,
        "meta_ephemeris_type": 0,
        "meta_classification_type": "U",
        "meta_norad_cat_id": 64786,
        "meta_element_set_no": 999,
        "meta_rev_at_epoch": 25530,
        "meta_bstar": 0.00029030456,
        "meta_mean_motion_dot": 0.00023377,
        "meta_mean_motion_ddot": 0,
        "tle_line1": "1 64786U 25149A   25352.28684694  .00023377  00000+0  29030-3 0  9994",
        "tle_line2": "2 64786  41.4683 343.0261 0007725  79.3286 280.8422 15.59417882255305"
      },
      "geometry": {
        "type": "Point",
        "coordinates": [
          -58.63979124274771,
          -28.227202867568266
        ]
      }
    },
    {
      "type": "Feature",
      "properties": {
        "norad_id": 65077,
        "name": "CREW DRAGON 11",
        "group": "stations",
        "lat": -29.13957615047421,
        "lon": 85.34838609785375,
        "alt_km": 420.03966842481077,
        "timestamp": "2025-12-18T23:35:47.807725+00:00",
        "meta_object_name": "CREW DRAGON 11",
        "meta_object_id": "2025-166A",
        "meta_epoch": "2025-12-18T12:55:40.164384",
        "meta_mean_motion": 15.49652631,
        "meta_eccentricity": 0.00031724,
        "meta_inclination": 51.6314,
        "meta_ra_of_asc_node": 113.7624,
        "meta_arg_of_pericenter": 267.0099,
        "meta_mean_anomaly": 93.0526,
        "meta_ephemeris_type": 0,
        "meta_classification_type": "U",
        "meta_norad_cat_id": 65077,
        "meta_element_set_no": 999,
        "meta_rev_at_epoch": 214,
        "meta_bstar": 0.00013939492,
        "meta_mean_motion_dot": 7.413e-05,
        "meta_mean_motion_ddot": 0,
        "tle_line1": "1 65077U 25166A   25352.53865931  .00007413  00000+0  13939-3 0  9994",
        "tle_line2": "2 65077  51.6314 113.7624 0003172 267.0099  93.0526 15.49652631  2141"
      },
      "geometry": {
        "type": "Point",
        "coordinates": [
          85.34838609785375,
          -29.13957615047421
        ]
      }
    },
    {
      "type": "Feature",
      "properties": {
        "norad_id": 65304,
        "name": "DRAGON CRS-33",
        "group": "stations",
        "lat": -29.139575696410628,
        "lon": 85.34838662287382,
        "alt_km": 420.0396684142315,
        "timestamp": "2025-12-18T23:35:47.807735+00:00",
        "meta_object_name": "DRAGON CRS-33",
        "meta_object_id": "2025-186A",
        "meta_epoch": "2025-12-18T12:55:40.164384",
        "meta_mean_motion": 15.49652631,
        "meta_eccentricity": 0.00031724,
        "meta_inclination": 51.6314,
        "meta_ra_of_asc_node": 113.7624,
        "meta_arg_of_pericenter": 267.0099,
        "meta_mean_anomaly": 93.0526,
        "meta_ephemeris_type": 0,
        "meta_classification_type": "U",
        "meta_norad_cat_id": 65304,
        "meta_element_set_no": 999,
        "meta_rev_at_epoch": 11,
        "meta_bstar": 0.00013939492,
        "meta_mean_motion_dot": 7.413e-05,
        "meta_mean_motion_ddot": 0,
        "tle_line1": "1 65304U 25186A   25352.53865931  .00007413  00000+0  13939-3 0  9999",
        "tle_line2": "2 65304  51.6314 113.7624 0003172 267.0099  93.0526 15.49652631   119"
      },
      "geometry": {
        "type": "Point",
        "coordinates": [
          85.34838662287382,
          -29.139575696410628
        ]
      }
    },
    {
      "type": "Feature",
      "properties": {
        "norad_id": 65586,
        "name": "PROGRESS-MS 32",
        "group": "stations",
        "lat": -29.139575242346766,
        "lon": 85.34838714789414,
        "alt_km": 420.0396684036559,
        "timestamp": "2025-12-18T23:35:47.807745+00:00",
        "meta_object_name": "PROGRESS-MS 32",
        "meta_object_id": "2025-204A",
        "meta_epoch": "2025-12-18T12:55:40.164384",
        "meta_mean_motion": 15.49652631,
        "meta_eccentricity": 0.00031724,
        "meta_inclination": 51.6314,
        "meta_ra_of_asc_node": 113.7624,
        "meta_arg_of_pericenter": 267.0099,
        "meta_mean_anomaly": 93.0526,
        "meta_ephemeris_type": 0,
        "meta_classification_type": "U",
        "meta_norad_cat_id": 65586,
        "meta_element_set_no": 999,
        "meta_rev_at_epoch": 27,
        "meta_bstar": 0.00013939492,
        "meta_mean_motion_dot": 7.413e-05,
        "meta_mean_motion_ddot": 0,
        "tle_line1": "1 65586U 25204A   25352.53865931  .00007413  00000+0  13939-3 0  9992",
        "tle_line2": "2 65586  51.6314 113.7624 0003172 267.0099  93.0526 15.49652631   278"
      },
      "geometry": {
        "type": "Point",
        "coordinates": [
          85.34838714789414,
          -29.139575242346766
        ]
      }
    },
    {
      "type": "Feature",
      "properties": {
        "norad_id": 65616,
        "name": "CYGNUS NG-23",
        "group": "stations",
        "lat": -29.13957478828289,
        "lon": 85.3483876729145,
        "alt_km": 420.0396683930776,
        "timestamp": "2025-12-18T23:35:47.807755+00:00",
        "meta_object_name": "CYGNUS NG-23",
        "meta_object_id": "2025-208A",
        "meta_epoch": "2025-12-18T12:55:40.164384",
        "meta_mean_motion": 15.49652631,
        "meta_eccentricity": 0.00031724,
        "meta_inclination": 51.6314,
        "meta_ra_of_asc_node": 113.7624,
        "meta_arg_of_pericenter": 267.0099,
        "meta_mean_anomaly": 93.0526,
        "meta_ephemeris_type": 0,
        "meta_classification_type": "U",
        "meta_norad_cat_id": 65616,
        "meta_element_set_no": 999,
        "meta_rev_at_epoch": 22,
        "meta_bstar": 0.00013939492,
        "meta_mean_motion_dot": 7.413e-05,
        "meta_mean_motion_ddot": 0,
        "tle_line1": "1 65616U 25208A   25352.53865931  .00007413  00000+0  13939-3 0  9990",
        "tle_line2": "2 65616  51.6314 113.7624 0003172 267.0099  93.0526 15.49652631   227"
      },
      "geometry": {
        "type": "Point",
        "coordinates": [
          85.3483876729145,
          -29.13957478828289
        ]
      }
    },
    {
      "type": "Feature",
      "properties": {
        "norad_id": 65729,
        "name": "DRAGONFLY",
        "group": "stations",
        "lat": 48.8320225177454,
        "lon": -141.24928254664547,
        "alt_km": 344.9203250157543,
        "timestamp": "2025-12-18T23:35:47.807765+00:00",
        "meta_object_name": "DRAGONFLY",
        "meta_object_id": "1998-067XH",
        "meta_epoch": "2025-12-18T14:00:17.390304",
        "meta_mean_motion": 15.73865471,
        "meta_eccentricity": 0.0007166,
        "meta_inclination": 51.6249,
        "meta_ra_of_asc_node": 105.7955,
        "meta_arg_of_pericenter": 314.6867,
        "meta_mean_anomaly": 45.3548,
        "meta_ephemeris_type": 0,
        "meta_classification_type": "U",
        "meta_norad_cat_id": 65729,
        "meta_element_set_no": 999,
        "meta_rev_at_epoch": 1408,
        "meta_bstar": 0.001129306,
        "meta_mean_motion_dot": 0.00166206,
        "meta_mean_motion_ddot": 0,
        "tle_line1": "1 65729U 98067XH  25352.58353461  .00166206  00000+0  11293-2 0  9999",
        "tle_line2": "2 65729  51.6249 105.7955 0007166 314.6867  45.3548 15.73865471 14084"
      },
      "geometry": {
        "type": "Point",
        "coordinates": [
          -141.24928254664547,
          48.8320225177454
        ]
      }
    }
  ]
}